FENGYUN 3D              
1 43010U 17072A   26159.26753104  .00000308  00000+0  16741-3 0  9998
2 43010  99.0128 133.5292 0002646  76.1365 284.0105 14.19738397443722
NOAA 20 (JPSS-1)        
1 43013U 17073A   26159.19053229  .00000061  00000+0  49943-4 0  9992
2 43013  98.7770  98.7333 0000472  40.7017 319.4195 14.19510137443191
GOES 17                 
1 43226U 18022A   26159.25465789 -.00000167  00000+0  00000+0 0  9992
2 43226   0.9135  85.8728 0000622   9.3344 163.6304  1.00271918 30339
SENTINEL-3B             
1 43437U 18039A   26159.14294896  .00000107  00000+0  62385-4 0  9993
2 43437  98.6250 226.8048 0000868  77.3993 282.7284 14.26739258422832
FENGYUN 2H              
1 43491U 18050A   26159.07428795 -.00000115  00000+0  00000+0 0  9996
2 43491   3.0070  79.1794 0001515 126.1581 157.3291  1.00271427 29346
METOP-C                 
1 43689U 18087A   26159.19922724  .00000095  00000+0  63347-4 0  9993
2 43689  98.6646 218.9668 0001423 139.5334 220.5949 14.21509741393559
GEO-KOMPSAT-2A          
1 43823U 18100A   26159.22655681 -.00000328  00000+0  00000+0 0  9990
2 43823   0.0496 133.5222 0002325 310.6646  22.2589  1.00270964 27542
METEOR-M2 2             
1 44387U 19038A   26159.25315777 -.00000172  00000+0 -54626-4 0  9995
2 44387  98.9148 146.4071 0002310  61.4675 298.6735 14.24362656360025
ARKTIKA-M 1             
1 47719U 21016A   26153.03917935 -.00000200  00000+0  00000+0 0  9993
2 47719  63.2379  59.8266 7283239 269.8643  14.6915  2.00628509 38489
FENGYUN 3E              
1 49008U 21062A   26159.32285984 -.00000029  00000+0  69183-5 0  9999
2 49008  98.7498 162.8300 0002743 100.2848 259.8638 14.19903698255325
GOES 18                 
1 51850U 22021A   26159.10272078  .00000112  00000+0  00000+0 0  9998
2 51850   0.0310 151.8940 0000602 348.7076  15.8793  1.00272412  6509
NOAA 21 (JPSS-2)        
1 54234U 22150A   26159.29424601  .00000070  00000+0  54045-4 0  9997
2 54234  98.7058  98.2328 0001139 175.6066 184.5120 14.19563965185288
METEOSAT-12 (MTG-I1)    
1 54743U 22170C   26159.27233330  .00000007  00000+0  00000+0 0  9996
2 54743   0.7280  21.4018 0003419  71.1205 261.7565  1.00271619 12889
TIANMU-1 03             
1 55973U 23039A   26159.31881722  .00013343  00000+0  26572-3 0  9999
2 55973  97.5239 332.9429 0004113 120.9236 239.2418 15.47032106179465
TIANMU-1 04             
1 55974U 23039B   26159.31169484  .00013799  00000+0  26917-3 0  9992
2 55974  97.5175 332.0887 0004731 118.1143 242.0586 15.47620656179478
TIANMU-1 05             
1 55975U 23039C   26159.29915823  .00013061  00000+0  26081-3 0  9990
2 55975  97.5217 332.5410 0003815 135.6717 224.4839 15.46957315179442
TIANMU-1 06             
1 55976U 23039D   26159.31453226  .00013696  00000+0  26807-3 0  9998
2 55976  97.5227 333.1836 0004030 132.4106 227.7485 15.47528035179470
FENGYUN 3G              
1 56232U 23055A   26159.16096668  .00027993  00000+0  42328-3 0  9999
2 56232  49.9935  32.5331 0005550 163.1112 197.0042 15.54414771178600
METEOR-M2 3             
1 57166U 23091A   26159.31568172 -.00000009  00000+0  14748-4 0  9993
2 57166  98.6085 214.4751 0003842 179.0725 181.0462 14.24046055153254
TIANMU-1 07             
1 57399U 23101A   26159.20407534  .00007146  00000+0  25084-3 0  9997
2 57399  97.2596 210.0794 0003569 140.3222 219.8281 15.29705533160270
TIANMU-1 08             
1 57400U 23101B   26159.30157128  .00005790  00000+0  20369-3 0  9996
2 57400  97.2586 209.9464 0005141 136.8809 223.2835 15.29708799160284
TIANMU-1 09             
1 57401U 23101C   26159.21974330  .00006027  00000+0  21175-3 0  9999
2 57401  97.2544 209.2869 0003954 147.4736 212.6750 15.29736003160274
TIANMU-1 10             
1 57402U 23101D   26159.18721318  .00005867  00000+0  20636-3 0  9994
2 57402  97.2623 210.2965 0005531 150.1852 209.9705 15.29706466160263
FENGYUN 3F              
1 57490U 23111A   26159.23651821  .00000054  00000+0  45834-4 0  9990
2 57490  98.6836 229.4117 0001574  99.3640 260.7714 14.19937637147594
ARKTIKA-M 2             
1 58584U 23198A   26154.30372208  .00000150  00000+0  00000+0 0  9990
2 58584  63.2209 155.9142 6898549 267.4684  18.7857  2.00591941 18047
TIANMU-1 11             
1 58645U 23205A   26159.27219758  .00005450  00000+0  20875-3 0  9992
2 58645  97.3453 180.9695 0009964  45.9282 314.2776 15.26902589136161
TIANMU-1 12             
1 58646U 23205B   26159.30788053  .00005301  00000+0  20347-3 0  9995
2 58646  97.3441 180.7621 0007816  33.3284 326.8446 15.26864874136159
TIANMU-1 13             
1 58647U 23205C   26159.27367319  .00005558  00000+0  21418-3 0  9994
2 58647  97.3469 180.9998 0007000  14.5650 345.5789 15.26718994136140
TIANMU-1 14             
1 58648U 23205D   26159.32467988  .00005485  00000+0  21106-3 0  9997
2 58648  97.3405 180.2387 0007972  17.6619 342.4896 15.26764450136157
TIANMU-1 19             
1 58660U 23208A   26159.27044172  .00007524  00000+0  25033-3 0  9993
2 58660  97.4491 275.5265 0004578   5.0535 355.0751 15.31438838135969
