OBJECT_NAME,OBJECT_ID,EPOCH,MEAN_MOTION,ECCENTRICITY,INCLINATION,RA_OF_ASC_NODE,ARG_OF_PERICENTER,MEAN_ANOMALY,EPHEMERIS_TYPE,CLASSIFICATION_TYPE,NORAD_CAT_ID,ELEMENT_SET_NO,REV_AT_EPOCH,BSTAR,MEAN_MOTION_DOT,MEAN_MOTION_DDOT
FENGYUN 3D,2017-072A,2026-06-08T06:25:14.681856,14.19738397,.00026468,99.0128,133.5292,76.1365,284.0105,0,U,43010,999,44372,.1674119E-3,.308E-5,0
NOAA 20 (JPSS-1),2017-073A,2026-06-08T04:34:21.989856,14.19510137,.00004726,98.7770,98.7333,40.7017,319.4195,0,U,43013,999,44319,.49942862E-4,.61E-6,0
GOES 17,2018-022A,2026-06-08T06:06:42.441696,1.00271918,.00006229,0.9135,85.8728,9.3344,163.6304,0,U,43226,999,3033,0,-.167E-5,0
SENTINEL-3B,2018-039A,2026-06-08T03:25:50.790144,14.26739258,.00008687,98.6250,226.8048,77.3993,282.7284,0,U,43437,999,42283,.62384564E-4,.107E-5,0
FENGYUN 2H,2018-050A,2026-06-08T01:46:58.478880,1.00271427,.00015157,3.0070,79.1794,126.1581,157.3291,0,U,43491,999,2934,0,-.115E-5,0
METOP-C,2018-087A,2026-06-08T04:46:53.233536,14.21509741,.00014239,98.6646,218.9668,139.5334,220.5949,0,U,43689,999,39355,.63346757E-4,.95E-6,0
GEO-KOMPSAT-2A,2018-100A,2026-06-08T05:26:14.508384,1.00270964,.00023255,0.0496,133.5222,310.6646,22.2589,0,U,43823,999,2754,0,-.328E-5,0
METEOR-M2 2,2019-038A,2026-06-08T06:04:32.831328,14.24362656,.00023106,98.9148,146.4071,61.4675,298.6735,0,U,44387,999,36002,-.54625768E-4,-.172E-5,0
ARKTIKA-M 1,2021-016A,2026-06-02T00:56:25.095840,2.00628509,.72832396,63.2379,59.8266,269.8643,14.6915,0,U,47719,999,3848,0,-.2E-5,0
FENGYUN 3E,2021-062A,2026-06-08T07:44:55.090176,14.19903698,.00027437,98.7498,162.8300,100.2848,259.8638,0,U,49008,999,25532,.6918334E-5,-.29E-6,0
GOES 18,2022-021A,2026-06-08T02:27:55.075392,1.00272412,.00006028,0.0310,151.8940,348.7076,15.8793,0,U,51850,999,650,0,.112E-5,0
NOAA 21 (JPSS-2),2022-150A,2026-06-08T07:03:42.855264,14.19563965,.00011396,98.7058,98.2328,175.6066,184.5120,0,U,54234,999,18528,.54044786E-4,.7E-6,0
METEOSAT-12 (MTG-I1),2022-170C,2026-06-08T06:32:09.597120,1.00271619,.00034192,0.7280,21.4018,71.1205,261.7565,0,U,54743,999,1288,0,.7E-7,0
TIANMU-1 03,2023-039A,2026-06-08T07:39:05.807808,15.47032106,.00041138,97.5239,332.9429,120.9236,239.2418,0,U,55973,999,17946,.26571682E-3,.13343E-3,0
TIANMU-1 04,2023-039B,2026-06-08T07:28:50.434176,15.47620656,.00047317,97.5175,332.0887,118.1143,242.0586,0,U,55974,999,17947,.26917364E-3,.13799E-3,0
TIANMU-1 05,2023-039C,2026-06-08T07:10:47.271072,15.46957315,.00038152,97.5217,332.5410,135.6717,224.4839,0,U,55975,999,17944,.26081166E-3,.13061E-3,0
TIANMU-1 06,2023-039D,2026-06-08T07:32:55.587264,15.47528035,.00040306,97.5227,333.1836,132.4106,227.7485,0,U,55976,999,17947,.26807133E-3,.13696E-3,0
FENGYUN 3G,2023-055A,2026-06-08T03:51:47.521152,15.54414771,.00055508,49.9935,32.5331,163.1112,197.0042,0,U,56232,999,17860,.42328491E-3,.27993E-3,0
METEOR-M2 3,2023-091A,2026-06-08T07:34:34.900608,14.24046055,.00038421,98.6085,214.4751,179.0725,181.0462,0,U,57166,999,15325,.14747501E-4,-.9E-7,0
TIANMU-1 07,2023-101A,2026-06-08T04:53:52.109376,15.29705533,.0003569,97.2596,210.0794,140.3222,219.8281,0,U,57399,999,16027,.25084014E-3,.7146E-4,0
TIANMU-1 08,2023-101B,2026-06-08T07:14:15.758592,15.29708799,.00051415,97.2586,209.9464,136.8809,223.2835,0,U,57400,999,16028,.20369389E-3,.579E-4,0
TIANMU-1 09,2023-101C,2026-06-08T05:16:25.821120,15.29736003,.0003954,97.2544,209.2869,147.4736,212.6750,0,U,57401,999,16027,.21175249E-3,.6027E-4,0
TIANMU-1 10,2023-101D,2026-06-08T04:29:35.218752,15.29706466,.00055315,97.2623,210.2965,150.1852,209.9705,0,U,57402,999,16026,.20636328E-3,.5867E-4,0
FENGYUN 3F,2023-111A,2026-06-08T05:40:35.173344,14.19937637,.00015742,98.6836,229.4117,99.3640,260.7714,0,U,57490,999,14759,.45834163E-4,.54E-6,0
ARKTIKA-M 2,2023-198A,2026-06-03T07:17:21.587712,2.00591941,.68985494,63.2209,155.9142,267.4684,18.7857,0,U,58584,999,1804,0,.15E-5,0
TIANMU-1 11,2023-205A,2026-06-08T06:31:57.870912,15.26902589,.00099648,97.3453,180.9695,45.9282,314.2776,0,U,58645,999,13616,.20874817E-3,.545E-4,0
TIANMU-1 12,2023-205B,2026-06-08T07:23:20.877792,15.26864874,.00078163,97.3441,180.7621,33.3284,326.8446,0,U,58646,999,13615,.20346955E-3,.5301E-4,0
TIANMU-1 13,2023-205C,2026-06-08T06:34:05.363616,15.26718994,.00070007,97.3469,180.9998,14.5650,345.5789,0,U,58647,999,13614,.21417732E-3,.5558E-4,0
TIANMU-1 14,2023-205D,2026-06-08T07:47:32.341632,15.26764450,.00079722,97.3405,180.2387,17.6619,342.4896,0,U,58648,999,13615,.21105829E-3,.5485E-4,0
TIANMU-1 19,2023-208A,2026-06-08T06:29:26.164608,15.31438838,.00045781,97.4491,275.5265,5.0535,355.0751,0,U,58660,999,13596,.25033251E-3,.7524E-4,0
